0 EQUATOR S
1 25068U 97075B   13282.80869865 -.00000222  00000-0  21745-2 0  4404
2 25068 007.6998 305.3899 8270056 293.9636 004.0023 01.07713591 62499
0 EQUATOR S
1 25068U 97075B   13285.59387113 -.00000237  00000-0  48308-2 0  4415
2 25068 007.6838 305.1649 8268954 294.6362 003.9585 01.07711944 62526
0 EQUATOR S
1 25068U 97075B   13287.45044265 -.00000177  00000-0  93060-2 0  4429
2 25068 007.6746 304.9791 8269387 295.1156 003.8574 01.07710372 62540
0 EQUATOR S
1 25068U 97075B   13288.37870122 -.00000160  00000-0  11128-1 0  4437
2 25068 007.6701 304.8851 8269639 295.3557 003.7950 01.07709803 62559
0 EQUATOR S
1 25068U 97075B   13289.30697640 -.00000166  00000-0  11942-1 0  4444
2 25068 007.6654 304.7911 8269927 295.5972 003.7346 01.07709792 62562
0 EQUATOR S
1 25068U 97075B   13290.23529979 -.00000120  00000-0  00000+0 0  4460
2 25068 007.6702 304.6136 8271091 295.8983 003.6830 01.07713574 62575
0 EQUATOR S
1 25068U 97075B   13291.16365850 -.00000282  00000-0  80736-2 0  4454
2 25068 007.6561 304.6040 8270456 296.0801 003.6441 01.07711807 62584
0 EQUATOR S
1 25068U 97075B   13293.02051380 -.00000418  00000-0  69270-3 0  4464
2 25068 007.6470 304.4139 8270844 296.5658 003.6111 01.07714987 62605
0 EQUATOR S
1 25068U 97075B   13293.94898861 -.00000486  00000-0 -33248-2 0  4470
2 25068 007.6416 304.3210 8270949 296.8073 003.6133 01.07716539 62614
